LEMUR-2-BALTO           
1 63395U 25052BH  26068.69493058  .00007621  00000+0  63456-3 0  9998
2 63395  97.6978 323.5166 0002279 359.2852   0.8367 14.98934076 53850
STARLINK-36279          
1 67193U 25304B   26068.68172340 -.00008347  00000+0 -67849-3 0  9993
2 67193  70.0026 174.4733 0002735 265.5448  94.5399 14.99121687 13880
